M2 PATHFINDER           
1 45727U 20037E   20178.73268869  .00000576  00000-0  63510-4 0  9991
2 45727  97.7019 358.6614 0011520 267.7130  92.2770 14.91202314  2015
